[{"OBJECT_NAME":"ONEWEB-0510","OBJECT_ID":"2022-138R","EPOCH":"2026-02-07T06:49:27.657696","MEAN_MOTION":13.2077252,"ECCENTRICITY":0.00021365,"INCLINATION":87.9217,"RA_OF_ASC_NODE":300.3613,"ARG_OF_PERICENTER":79.1428,"MEAN_ANOMALY":280.9945,"EPHEMERIS_TYPE":0,"CLASSIFICATION_TYPE":"U","NORAD_CAT_ID":54128,"ELEMENT_SET_NO":999,"REV_AT_EPOCH":16213,"BSTAR":0.00028407824,"MEAN_MOTION_DOT":1.28e-6,"MEAN_MOTION_DDOT":0},{"OBJECT_NAME":"ONEWEB-0511","OBJECT_ID":"2022-138S","EPOCH":"2026-02-07T06:58:11.613216","MEAN_MOTION":13.19723808,"ECCENTRICITY":0.00017942,"INCLINATION":87.9261,"RA_OF_ASC_NODE":330.8158,"ARG_OF_PERICENTER":69.0481,"MEAN_ANOMALY":291.0844,"EPHEMERIS_TYPE":0,"CLASSIFICATION_TYPE":"U","NORAD_CAT_ID":54129,"ELEMENT_SET_NO":999,"REV_AT_EPOCH":15970,"BSTAR":0.00017488873,"MEAN_MOTION_DOT":8.3e-7,"MEAN_MOTION_DDOT":0},{"OBJECT_NAME":"ONEWEB-0512","OBJECT_ID":"2022-138T","EPOCH":"2026-02-07T06:46:50.990304","MEAN_MOTION":13.19726142,"ECCENTRICITY":0.00013795,"INCLINATION":87.9247,"RA_OF_ASC_NODE":330.8346,"ARG_OF_PERICENTER":70.831,"MEAN_ANOMALY":289.2972,"EPHEMERIS_TYPE":0,"CLASSIFICATION_TYPE":"U","NORAD_CAT_ID":54130,"ELEMENT_SET_NO":999,"REV_AT_EPOCH":15967,"BSTAR":0.00029058088,"MEAN_MOTION_DOT":1.29e-6,"MEAN_MOTION_DDOT":0},{"OBJECT_NAME":"ONEWEB-0513","OBJECT_ID":"2022-138U","EPOCH":"2026-02-07T06:22:08.323104","MEAN_MOTION":13.20260203,"ECCENTRICITY":0.00012316,"INCLINATION":87.9263,"RA_OF_ASC_NODE":330.7955,"ARG_OF_PERICENTER":47.3919,"MEAN_ANOMALY":312.7318,"EPHEMERIS_TYPE":0,"CLASSIFICATION_TYPE":"U","NORAD_CAT_ID":54131,"ELEMENT_SET_NO":999,"REV_AT_EPOCH":15957,"BSTAR":1.950719e-5,"MEAN_MOTION_DOT":2.1e-7,"MEAN_MOTION_DDOT":0},{"OBJECT_NAME":"ONEWEB-0514","OBJECT_ID":"2022-138V","EPOCH":"2026-02-07T07:09:34.549056","MEAN_MOTION":13.19724465,"ECCENTRICITY":0.00018692,"INCLINATION":87.925,"RA_OF_ASC_NODE":330.8197,"ARG_OF_PERICENTER":76.1289,"MEAN_ANOMALY":284.0051,"EPHEMERIS_TYPE":0,"CLASSIFICATION_TYPE":"U","NORAD_CAT_ID":54132,"ELEMENT_SET_NO":999,"REV_AT_EPOCH":15969,"BSTAR":0.00024784629,"MEAN_MOTION_DOT":1.12e-6,"MEAN_MOTION_DDOT":0},{"OBJECT_NAME":"ONEWEB-0515","OBJECT_ID":"2022-138W","EPOCH":"2026-02-07T06:31:16.571712","MEAN_MOTION":13.2077008,"ECCENTRICITY":0.00024379,"INCLINATION":87.9221,"RA_OF_ASC_NODE":300.3527,"ARG_OF_PERICENTER":96.4544,"MEAN_ANOMALY":263.6867,"EPHEMERIS_TYPE":0,"CLASSIFICATION_TYPE":"U","NORAD_CAT_ID":54133,"ELEMENT_SET_NO":999,"REV_AT_EPOCH":16215,"BSTAR":-0.00026206281,"MEAN_MOTION_DOT":-9.4e-7,"MEAN_MOTION_DDOT":0},{"OBJECT_NAME":"ONEWEB-0516","OBJECT_ID":"2022-138X","EPOCH":"2026-02-07T06:33:10.671552","MEAN_MOTION":13.19727968,"ECCENTRICITY":0.00016626,"INCLINATION":87.9246,"RA_OF_ASC_NODE":330.8384,"ARG_OF_PERICENTER":77.5891,"MEAN_ANOMALY":282.5428,"EPHEMERIS_TYPE":0,"CLASSIFICATION_TYPE":"U","NORAD_CAT_ID":54134,"ELEMENT_SET_NO":999,"REV_AT_EPOCH":15969,"BSTAR":0.00010576263,"MEAN_MOTION_DOT":5.5e-7,"MEAN_MOTION_DDOT":0},{"OBJECT_NAME":"ONEWEB-0517","OBJECT_ID":"2022-138Y","EPOCH":"2026-02-07T06:03:36.737856","MEAN_MOTION":13.19724181,"ECCENTRICITY":0.00018789,"INCLINATION":87.9251,"RA_OF_ASC_NODE":330.8299,"ARG_OF_PERICENTER":70.9781,"MEAN_ANOMALY":289.1555,"EPHEMERIS_TYPE":0,"CLASSIFICATION_TYPE":"U","NORAD_CAT_ID":54135,"ELEMENT_SET_NO":999,"REV_AT_EPOCH":15969,"BSTAR":-4.3901129e-5,"MEAN_MOTION_DOT":-5.0e-8,"MEAN_MOTION_DDOT":0},{"OBJECT_NAME":"ONEWEB-0518","OBJECT_ID":"2022-138Z","EPOCH":"2026-02-07T06:30:54.380736","MEAN_MOTION":13.19725397,"ECCENTRICITY":0.00015536,"INCLINATION":87.9247,"RA_OF_ASC_NODE":330.8401,"ARG_OF_PERICENTER":80.1822,"MEAN_ANOMALY":279.9486,"EPHEMERIS_TYPE":0,"CLASSIFICATION_TYPE":"U","NORAD_CAT_ID":54136,"ELEMENT_SET_NO":999,"REV_AT_EPOCH":15969,"BSTAR":0.0001424294,"MEAN_MOTION_DOT":7.0e-7,"MEAN_MOTION_DDOT":0},{"OBJECT_NAME":"ONEWEB-0519","OBJECT_ID":"2022-138AA","EPOCH":"2026-02-07T07:07:18.488064","MEAN_MOTION":13.19727071,"ECCENTRICITY":0.00018001,"INCLINATION":87.9258,"RA_OF_ASC_NODE":330.8126,"ARG_OF_PERICENTER":70.7712,"MEAN_ANOMALY":289.3615,"EPHEMERIS_TYPE":0,"CLASSIFICATION_TYPE":"U","NORAD_CAT_ID":54137,"ELEMENT_SET_NO":999,"REV_AT_EPOCH":15970,"BSTAR":0.00022863754,"MEAN_MOTION_DOT":1.04e-6,"MEAN_MOTION_DDOT":0},{"OBJECT_NAME":"ONEWEB-0520","OBJECT_ID":"2022-138AB","EPOCH":"2026-02-07T06:08:09.401568","MEAN_MOTION":13.19727941,"ECCENTRICITY":0.00014354,"INCLINATION":87.9258,"RA_OF_ASC_NODE":330.8268,"ARG_OF_PERICENTER":79.4325,"MEAN_ANOMALY":280.697,"EPHEMERIS_TYPE":0,"CLASSIFICATION_TYPE":"U","NORAD_CAT_ID":54138,"ELEMENT_SET_NO":999,"REV_AT_EPOCH":15968,"BSTAR":0.00022162654,"MEAN_MOTION_DOT":1.02e-6,"MEAN_MOTION_DDOT":0},{"OBJECT_NAME":"ONEWEB-0521","OBJECT_ID":"2022-138AC","EPOCH":"2026-02-07T06:55:55.186752","MEAN_MOTION":13.19728565,"ECCENTRICITY":0.0001885,"INCLINATION":87.9259,"RA_OF_ASC_NODE":330.8034,"ARG_OF_PERICENTER":73.0942,"MEAN_ANOMALY":287.0398,"EPHEMERIS_TYPE":0,"CLASSIFICATION_TYPE":"U","NORAD_CAT_ID":54139,"ELEMENT_SET_NO":999,"REV_AT_EPOCH":15963,"BSTAR":0.00025470844,"MEAN_MOTION_DOT":1.15e-6,"MEAN_MOTION_DDOT":0},{"OBJECT_NAME":"ONEWEB-0522","OBJECT_ID":"2022-138AD","EPOCH":"2026-02-07T06:26:21.283296","MEAN_MOTION":13.1972405,"ECCENTRICITY":0.00016079,"INCLINATION":87.9257,"RA_OF_ASC_NODE":330.8087,"ARG_OF_PERICENTER":74.6942,"MEAN_ANOMALY":285.4368,"EPHEMERIS_TYPE":0,"CLASSIFICATION_TYPE":"U","NORAD_CAT_ID":54140,"ELEMENT_SET_NO":999,"REV_AT_EPOCH":15967,"BSTAR":0.00016211112,"MEAN_MOTION_DOT":7.8e-7,"MEAN_MOTION_DDOT":0},{"OBJECT_NAME":"ONEWEB-0523","OBJECT_ID":"2022-138AE","EPOCH":"2026-02-07T06:13:05.540160","MEAN_MOTION":13.20769659,"ECCENTRICITY":0.00024435,"INCLINATION":87.922,"RA_OF_ASC_NODE":300.3699,"ARG_OF_PERICENTER":80.5315,"MEAN_ANOMALY":279.6094,"EPHEMERIS_TYPE":0,"CLASSIFICATION_TYPE":"U","NORAD_CAT_ID":54141,"ELEMENT_SET_NO":999,"REV_AT_EPOCH":16215,"BSTAR":-0.00016870017,"MEAN_MOTION_DOT":-5.6e-7,"MEAN_MOTION_DDOT":0},{"OBJECT_NAME":"ONEWEB-0524","OBJECT_ID":"2022-138AF","EPOCH":"2026-02-07T05:57:10.022688","MEAN_MOTION":13.20774322,"ECCENTRICITY":0.00021776,"INCLINATION":87.9215,"RA_OF_ASC_NODE":300.3736,"ARG_OF_PERICENTER":102.7347,"MEAN_ANOMALY":257.4029,"EPHEMERIS_TYPE":0,"CLASSIFICATION_TYPE":"U","NORAD_CAT_ID":54142,"ELEMENT_SET_NO":999,"REV_AT_EPOCH":16215,"BSTAR":-0.00010295418,"MEAN_MOTION_DOT":-2.9e-7,"MEAN_MOTION_DDOT":0},{"OBJECT_NAME":"ONEWEB-0525","OBJECT_ID":"2022-138AG","EPOCH":"2026-02-07T06:53:38.664384","MEAN_MOTION":13.19728495,"ECCENTRICITY":0.00014537,"INCLINATION":87.9251,"RA_OF_ASC_NODE":330.8218,"ARG_OF_PERICENTER":79.1204,"MEAN_ANOMALY":281.0092,"EPHEMERIS_TYPE":0,"CLASSIFICATION_TYPE":"U","NORAD_CAT_ID":54143,"ELEMENT_SET_NO":999,"REV_AT_EPOCH":15969,"BSTAR":0.00014494194,"MEAN_MOTION_DOT":7.1e-7,"MEAN_MOTION_DDOT":0},{"OBJECT_NAME":"ONEWEB-0526","OBJECT_ID":"2022-138AH","EPOCH":"2026-02-07T05:52:13.928160","MEAN_MOTION":13.19727934,"ECCENTRICITY":0.00016396,"INCLINATION":87.9257,"RA_OF_ASC_NODE":330.8224,"ARG_OF_PERICENTER":78.5404,"MEAN_ANOMALY":281.5913,"EPHEMERIS_TYPE":0,"CLASSIFICATION_TYPE":"U","NORAD_CAT_ID":54144,"ELEMENT_SET_NO":999,"REV_AT_EPOCH":15966,"BSTAR":0.00026360492,"MEAN_MOTION_DOT":1.18e-6,"MEAN_MOTION_DDOT":0},{"OBJECT_NAME":"ONEWEB-0529","OBJECT_ID":"2022-138AJ","EPOCH":"2026-02-07T05:56:47.246784","MEAN_MOTION":13.19727313,"ECCENTRICITY":0.00014962,"INCLINATION":87.9249,"RA_OF_ASC_NODE":330.8435,"ARG_OF_PERICENTER":82.4461,"MEAN_ANOMALY":277.6841,"EPHEMERIS_TYPE":0,"CLASSIFICATION_TYPE":"U","NORAD_CAT_ID":54145,"ELEMENT_SET_NO":999,"REV_AT_EPOCH":15968,"BSTAR":0.00016871744,"MEAN_MOTION_DOT":8.0e-7,"MEAN_MOTION_DDOT":0},{"OBJECT_NAME":"ONEWEB-0531","OBJECT_ID":"2022-138AK","EPOCH":"2026-02-07T05:36:43.534944","MEAN_MOTION":13.20769908,"ECCENTRICITY":0.0002502,"INCLINATION":87.9218,"RA_OF_ASC_NODE":300.3714,"ARG_OF_PERICENTER":88.2078,"MEAN_ANOMALY":271.9341,"EPHEMERIS_TYPE":0,"CLASSIFICATION_TYPE":"U","NORAD_CAT_ID":54146,"ELEMENT_SET_NO":999,"REV_AT_EPOCH":16215,"BSTAR":0.00024309004,"MEAN_MOTION_DOT":1.12e-6,"MEAN_MOTION_DDOT":0},{"OBJECT_NAME":"ONEWEB-0535","OBJECT_ID":"2022-138AL","EPOCH":"2026-02-07T06:44:33.046656","MEAN_MOTION":13.19723989,"ECCENTRICITY":0.00020863,"INCLINATION":87.9259,"RA_OF_ASC_NODE":330.8092,"ARG_OF_PERICENTER":78.6387,"MEAN_ANOMALY":281.4981,"EPHEMERIS_TYPE":0,"CLASSIFICATION_TYPE":"U","NORAD_CAT_ID":54147,"ELEMENT_SET_NO":999,"REV_AT_EPOCH":15970,"BSTAR":0.00011076529,"MEAN_MOTION_DOT":5.7e-7,"MEAN_MOTION_DDOT":0},{"OBJECT_NAME":"ONEWEB-0536","OBJECT_ID":"2022-138AM","EPOCH":"2026-02-07T05:18:32.809248","MEAN_MOTION":13.20770226,"ECCENTRICITY":0.00025313,"INCLINATION":87.9207,"RA_OF_ASC_NODE":300.4122,"ARG_OF_PERICENTER":92.3731,"MEAN_ANOMALY":267.7692,"EPHEMERIS_TYPE":0,"CLASSIFICATION_TYPE":"U","NORAD_CAT_ID":54148,"ELEMENT_SET_NO":999,"REV_AT_EPOCH":16214,"BSTAR":0.00024599911,"MEAN_MOTION_DOT":1.13e-6,"MEAN_MOTION_DDOT":0},{"OBJECT_NAME":"ONEWEB-0527","OBJECT_ID":"2022-166A","EPOCH":"2026-02-07T04:47:58.971840","MEAN_MOTION":13.21827016,"ECCENTRICITY":0.00015388,"INCLINATION":87.9187,"RA_OF_ASC_NODE":269.9289,"ARG_OF_PERICENTER":86.1317,"MEAN_ANOMALY":273.9993,"EPHEMERIS_TYPE":0,"CLASSIFICATION_TYPE":"U","NORAD_CAT_ID":54642,"ELEMENT_SET_NO":999,"REV_AT_EPOCH":15436,"BSTAR":0.00022600154,"MEAN_MOTION_DOT":1.06e-6,"MEAN_MOTION_DDOT":0},{"OBJECT_NAME":"ONEWEB-0528","OBJECT_ID":"2022-166B","EPOCH":"2026-02-07T03:08:27.982752","MEAN_MOTION":13.21824877,"ECCENTRICITY":0.00014789,"INCLINATION":87.9186,"RA_OF_ASC_NODE":269.9464,"ARG_OF_PERICENTER":83.5722,"MEAN_ANOMALY":276.558,"EPHEMERIS_TYPE":0,"CLASSIFICATION_TYPE":"U","NORAD_CAT_ID":54643,"ELEMENT_SET_NO":999,"REV_AT_EPOCH":15436,"BSTAR":0.00019021989,"MEAN_MOTION_DOT":9.2e-7,"MEAN_MOTION_DDOT":0}]
